[{"OBJECT_NAME":"SKYKRAFT-1A","OBJECT_ID":"2023-001AX","EPOCH":"2026-03-09T17:03:19.828224","MEAN_MOTION":15.28083228,"ECCENTRICITY":0.00112767,"INCLINATION":97.3349,"RA_OF_ASC_NODE":127.629,"ARG_OF_PERICENTER":121.5092,"MEAN_ANOMALY":238.7251,"EPHEMERIS_TYPE":0,"CLASSIFICATION_TYPE":"U","NORAD_CAT_ID":55054,"ELEMENT_SET_NO":999,"REV_AT_EPOCH":17652,"BSTAR":0.0003006872,"MEAN_MOTION_DOT":8.177e-5,"MEAN_MOTION_DDOT":0},{"OBJECT_NAME":"STARLINK-31021","OBJECT_ID":"2023-191L","EPOCH":"2026-03-09T10:46:24.056256","MEAN_MOTION":15.26741054,"ECCENTRICITY":0.00014076,"INCLINATION":43,"RA_OF_ASC_NODE":104.8427,"ARG_OF_PERICENTER":267.8,"MEAN_ANOMALY":92.269,"EPHEMERIS_TYPE":0,"CLASSIFICATION_TYPE":"U","NORAD_CAT_ID":58518,"ELEMENT_SET_NO":999,"REV_AT_EPOCH":12543,"BSTAR":3.3885289e-5,"MEAN_MOTION_DOT":6.49e-6,"MEAN_MOTION_DDOT":0}]
